ONEWEB-0273             
1 48991U 21060AA  25328.78336536 -.00000028  00000+0 -10716-3 0  9990
2 48991  87.9030 269.4857 0002124  75.1936 284.9430 13.16594610212697
ONEWEB-0274             
1 48992U 21060AB  25329.11267389  .00000058  00000+0  11736-3 0  9992
2 48992  87.9018 269.4451 0001950  89.5520 270.5835 13.16594099212778
ONEWEB-0275             
1 48993U 21060AC  25329.10158865 -.00001489  00000+0 -39293-2 0  9998
2 48993  87.9029 269.4159 0002039  80.0874 280.0487 13.16600071212703
ONEWEB-0276             
1 48994U 21060AD  25328.83085231  .00000275  00000+0  68601-3 0  9990
2 48994  87.9034 269.4688 0001992  74.9502 285.1849 13.16594313212680
ONEWEB-0277             
1 48995U 21060AE  25329.07150354  .00000142  00000+0  33832-3 0  9998
2 48995  87.9023 269.4475 0002065  82.5438 277.5928 13.16599355212705
ONEWEB-0278             
1 48996U 21060AF  25329.13801390  .00000146  00000+0  34720-3 0  9990
2 48996  87.9038 269.4039 0001808  68.0967 292.0356 13.16595775212842
ONEWEB-0279             
1 48997U 21060AG  25329.06993954  .00000136  00000+0  32260-3 0  9997
2 48997  87.9035 269.4159 0002161  82.5455 277.5922 13.16594653212761
ONEWEB-0280             
1 48998U 21060AH  25329.08495436  .00000168  00000+0  40659-3 0  9998
2 48998  87.9033 269.4189 0002111  68.6156 291.5200 13.16598262212700
ONEWEB-0281             
1 48999U 21060AJ  25329.09051771  .00000147  00000+0  34977-3 0  9993
2 48999  87.9033 269.4134 0001894  82.4552 277.6794 13.16595347212773
ONEWEB-0282             
1 49000U 21060AK  25329.12059914  .00000207  00000+0  50718-3 0  9996
2 49000  87.9029 269.4180 0002101  77.5464 282.5902 13.16595168212757
ONEWEB-0283             
1 49001U 21060AL  25328.80552933  .00000099  00000+0  22485-3 0  9999
2 49001  87.9030 269.4812 0002076  79.9346 280.2019 13.16594901212723
ONEWEB-0284             
1 49002U 21060AM  25329.10318465 -.00000036  00000+0 -12829-3 0  9998
2 49002  87.9033 269.4101 0001935  66.9250 293.2084 13.16594477212747
ONEWEB-0285             
1 49075U 21075A   25329.12588412 -.00000309  00000+0 -89498-3 0  9996
2 49075  87.8959  31.1979 0001876  98.6338 261.5003 13.12442775208443
ONEWEB-0286             
1 49076U 21075B   25329.10777103  .00000128  00000+0  32022-3 0  9990
2 49076  87.8952  31.2351 0001662 104.9115 255.2198 13.12441996207795
ONEWEB-0287             
1 49077U 21075C   25329.12617080  .00000703  00000+0  17768-2 0  9998
2 49077  87.9137  46.4434 0001350 112.3115 247.8160 13.17641590206757
ONEWEB-0288             
1 49078U 21075D   25329.08358760  .00000417  00000+0  11249-2 0  9991
2 49078  87.8957  31.2009 0001708  95.6687 264.4637 13.12443610208418
ONEWEB-0289             
1 49079U 21075E   25328.78514909  .00000078  00000+0  16804-3 0  9993
2 49079  87.9125  46.5277 0001857  88.9739 271.1605 13.17647701207287
