[{"OBJECT_NAME":"ONEWEB-0273","OBJECT_ID":"2021-060AA","EPOCH":"2025-11-24T18:48:02.767104","MEAN_MOTION":13.1659461,"ECCENTRICITY":0.0002124,"INCLINATION":87.903,"RA_OF_ASC_NODE":269.4857,"ARG_OF_PERICENTER":75.1936,"MEAN_ANOMALY":284.943,"EPHEMERIS_TYPE":0,"CLASSIFICATION_TYPE":"U","NORAD_CAT_ID":48991,"ELEMENT_SET_NO":999,"REV_AT_EPOCH":21269,"BSTAR":-0.00010716,"MEAN_MOTION_DOT":-2.8e-7,"MEAN_MOTION_DDOT":0},{"OBJECT_NAME":"ONEWEB-0274","OBJECT_ID":"2021-060AB","EPOCH":"2025-11-25T02:42:15.024096","MEAN_MOTION":13.16594099,"ECCENTRICITY":0.000195,"INCLINATION":87.9018,"RA_OF_ASC_NODE":269.4451,"ARG_OF_PERICENTER":89.552,"MEAN_ANOMALY":270.5835,"EPHEMERIS_TYPE":0,"CLASSIFICATION_TYPE":"U","NORAD_CAT_ID":48992,"ELEMENT_SET_NO":999,"REV_AT_EPOCH":21277,"BSTAR":0.00011736,"MEAN_MOTION_DOT":5.8e-7,"MEAN_MOTION_DDOT":0},{"OBJECT_NAME":"ONEWEB-0275","OBJECT_ID":"2021-060AC","EPOCH":"2025-11-25T02:26:17.259360","MEAN_MOTION":13.16600071,"ECCENTRICITY":0.0002039,"INCLINATION":87.9029,"RA_OF_ASC_NODE":269.4159,"ARG_OF_PERICENTER":80.0874,"MEAN_ANOMALY":280.0487,"EPHEMERIS_TYPE":0,"CLASSIFICATION_TYPE":"U","NORAD_CAT_ID":48993,"ELEMENT_SET_NO":999,"REV_AT_EPOCH":21270,"BSTAR":-0.0039293,"MEAN_MOTION_DOT":-1.489e-5,"MEAN_MOTION_DDOT":0},{"OBJECT_NAME":"ONEWEB-0276","OBJECT_ID":"2021-060AD","EPOCH":"2025-11-24T19:56:25.639584","MEAN_MOTION":13.16594313,"ECCENTRICITY":0.0001992,"INCLINATION":87.9034,"RA_OF_ASC_NODE":269.4688,"ARG_OF_PERICENTER":74.9502,"MEAN_ANOMALY":285.1849,"EPHEMERIS_TYPE":0,"CLASSIFICATION_TYPE":"U","NORAD_CAT_ID":48994,"ELEMENT_SET_NO":999,"REV_AT_EPOCH":21268,"BSTAR":0.00068601,"MEAN_MOTION_DOT":2.75e-6,"MEAN_MOTION_DDOT":0},{"OBJECT_NAME":"ONEWEB-0277","OBJECT_ID":"2021-060AE","EPOCH":"2025-11-25T01:42:57.905856","MEAN_MOTION":13.16599355,"ECCENTRICITY":0.0002065,"INCLINATION":87.9023,"RA_OF_ASC_NODE":269.4475,"ARG_OF_PERICENTER":82.5438,"MEAN_ANOMALY":277.5928,"EPHEMERIS_TYPE":0,"CLASSIFICATION_TYPE":"U","NORAD_CAT_ID":48995,"ELEMENT_SET_NO":999,"REV_AT_EPOCH":21270,"BSTAR":0.00033832,"MEAN_MOTION_DOT":1.42e-6,"MEAN_MOTION_DDOT":0},{"OBJECT_NAME":"ONEWEB-0278","OBJECT_ID":"2021-060AF","EPOCH":"2025-11-25T03:18:44.400960","MEAN_MOTION":13.16595775,"ECCENTRICITY":0.0001808,"INCLINATION":87.9038,"RA_OF_ASC_NODE":269.4039,"ARG_OF_PERICENTER":68.0967,"MEAN_ANOMALY":292.0356,"EPHEMERIS_TYPE":0,"CLASSIFICATION_TYPE":"U","NORAD_CAT_ID":48996,"ELEMENT_SET_NO":999,"REV_AT_EPOCH":21284,"BSTAR":0.0003472,"MEAN_MOTION_DOT":1.46e-6,"MEAN_MOTION_DDOT":0},{"OBJECT_NAME":"ONEWEB-0279","OBJECT_ID":"2021-060AG","EPOCH":"2025-11-25T01:40:42.776256","MEAN_MOTION":13.16594653,"ECCENTRICITY":0.0002161,"INCLINATION":87.9035,"RA_OF_ASC_NODE":269.4159,"ARG_OF_PERICENTER":82.5455,"MEAN_ANOMALY":277.5922,"EPHEMERIS_TYPE":0,"CLASSIFICATION_TYPE":"U","NORAD_CAT_ID":48997,"ELEMENT_SET_NO":999,"REV_AT_EPOCH":21276,"BSTAR":0.0003226,"MEAN_MOTION_DOT":1.36e-6,"MEAN_MOTION_DDOT":0},{"OBJECT_NAME":"ONEWEB-0280","OBJECT_ID":"2021-060AH","EPOCH":"2025-11-25T02:02:20.056704","MEAN_MOTION":13.16598262,"ECCENTRICITY":0.0002111,"INCLINATION":87.9033,"RA_OF_ASC_NODE":269.4189,"ARG_OF_PERICENTER":68.6156,"MEAN_ANOMALY":291.52,"EPHEMERIS_TYPE":0,"CLASSIFICATION_TYPE":"U","NORAD_CAT_ID":48998,"ELEMENT_SET_NO":999,"REV_AT_EPOCH":21270,"BSTAR":0.00040659,"MEAN_MOTION_DOT":1.68e-6,"MEAN_MOTION_DDOT":0},{"OBJECT_NAME":"ONEWEB-0281","OBJECT_ID":"2021-060AJ","EPOCH":"2025-11-25T02:10:20.730144","MEAN_MOTION":13.16595347,"ECCENTRICITY":0.0001894,"INCLINATION":87.9033,"RA_OF_ASC_NODE":269.4134,"ARG_OF_PERICENTER":82.4552,"MEAN_ANOMALY":277.6794,"EPHEMERIS_TYPE":0,"CLASSIFICATION_TYPE":"U","NORAD_CAT_ID":48999,"ELEMENT_SET_NO":999,"REV_AT_EPOCH":21277,"BSTAR":0.00034977,"MEAN_MOTION_DOT":1.47e-6,"MEAN_MOTION_DDOT":0},{"OBJECT_NAME":"ONEWEB-0282","OBJECT_ID":"2021-060AK","EPOCH":"2025-11-25T02:53:39.765696","MEAN_MOTION":13.16595168,"ECCENTRICITY":0.0002101,"INCLINATION":87.9029,"RA_OF_ASC_NODE":269.418,"ARG_OF_PERICENTER":77.5464,"MEAN_ANOMALY":282.5902,"EPHEMERIS_TYPE":0,"CLASSIFICATION_TYPE":"U","NORAD_CAT_ID":49000,"ELEMENT_SET_NO":999,"REV_AT_EPOCH":21275,"BSTAR":0.00050718,"MEAN_MOTION_DOT":2.07e-6,"MEAN_MOTION_DDOT":0},{"OBJECT_NAME":"ONEWEB-0283","OBJECT_ID":"2021-060AL","EPOCH":"2025-11-24T19:19:57.734112","MEAN_MOTION":13.16594901,"ECCENTRICITY":0.0002076,"INCLINATION":87.903,"RA_OF_ASC_NODE":269.4812,"ARG_OF_PERICENTER":79.9346,"MEAN_ANOMALY":280.2019,"EPHEMERIS_TYPE":0,"CLASSIFICATION_TYPE":"U","NORAD_CAT_ID":49001,"ELEMENT_SET_NO":999,"REV_AT_EPOCH":21272,"BSTAR":0.00022485,"MEAN_MOTION_DOT":9.9e-7,"MEAN_MOTION_DDOT":0},{"OBJECT_NAME":"ONEWEB-0284","OBJECT_ID":"2021-060AM","EPOCH":"2025-11-25T02:28:35.153760","MEAN_MOTION":13.16594477,"ECCENTRICITY":0.0001935,"INCLINATION":87.9033,"RA_OF_ASC_NODE":269.4101,"ARG_OF_PERICENTER":66.925,"MEAN_ANOMALY":293.2084,"EPHEMERIS_TYPE":0,"CLASSIFICATION_TYPE":"U","NORAD_CAT_ID":49002,"ELEMENT_SET_NO":999,"REV_AT_EPOCH":21274,"BSTAR":-0.00012829,"MEAN_MOTION_DOT":-3.6e-7,"MEAN_MOTION_DDOT":0},{"OBJECT_NAME":"ONEWEB-0285","OBJECT_ID":"2021-075A","EPOCH":"2025-11-25T03:01:16.387968","MEAN_MOTION":13.12442775,"ECCENTRICITY":0.0001876,"INCLINATION":87.8959,"RA_OF_ASC_NODE":31.1979,"ARG_OF_PERICENTER":98.6338,"MEAN_ANOMALY":261.5003,"EPHEMERIS_TYPE":0,"CLASSIFICATION_TYPE":"U","NORAD_CAT_ID":49075,"ELEMENT_SET_NO":999,"REV_AT_EPOCH":20844,"BSTAR":-0.00089498,"MEAN_MOTION_DOT":-3.09e-6,"MEAN_MOTION_DDOT":0},{"OBJECT_NAME":"ONEWEB-0286","OBJECT_ID":"2021-075B","EPOCH":"2025-11-25T02:35:11.416992","MEAN_MOTION":13.12441996,"ECCENTRICITY":0.0001662,"INCLINATION":87.8952,"RA_OF_ASC_NODE":31.2351,"ARG_OF_PERICENTER":104.9115,"MEAN_ANOMALY":255.2198,"EPHEMERIS_TYPE":0,"CLASSIFICATION_TYPE":"U","NORAD_CAT_ID":49076,"ELEMENT_SET_NO":999,"REV_AT_EPOCH":20779,"BSTAR":0.00032022,"MEAN_MOTION_DOT":1.28e-6,"MEAN_MOTION_DDOT":0},{"OBJECT_NAME":"ONEWEB-0287","OBJECT_ID":"2021-075C","EPOCH":"2025-11-25T03:01:41.157120","MEAN_MOTION":13.1764159,"ECCENTRICITY":0.000135,"INCLINATION":87.9137,"RA_OF_ASC_NODE":46.4434,"ARG_OF_PERICENTER":112.3115,"MEAN_ANOMALY":247.816,"EPHEMERIS_TYPE":0,"CLASSIFICATION_TYPE":"U","NORAD_CAT_ID":49077,"ELEMENT_SET_NO":999,"REV_AT_EPOCH":20675,"BSTAR":0.0017768,"MEAN_MOTION_DOT":7.03e-6,"MEAN_MOTION_DDOT":0},{"OBJECT_NAME":"ONEWEB-0288","OBJECT_ID":"2021-075D","EPOCH":"2025-11-25T02:00:21.968640","MEAN_MOTION":13.1244361,"ECCENTRICITY":0.0001708,"INCLINATION":87.8957,"RA_OF_ASC_NODE":31.2009,"ARG_OF_PERICENTER":95.6687,"MEAN_ANOMALY":264.4637,"EPHEMERIS_TYPE":0,"CLASSIFICATION_TYPE":"U","NORAD_CAT_ID":49078,"ELEMENT_SET_NO":999,"REV_AT_EPOCH":20841,"BSTAR":0.0011249,"MEAN_MOTION_DOT":4.17e-6,"MEAN_MOTION_DDOT":0},{"OBJECT_NAME":"ONEWEB-0289","OBJECT_ID":"2021-075E","EPOCH":"2025-11-24T18:50:36.881376","MEAN_MOTION":13.17647701,"ECCENTRICITY":0.0001857,"INCLINATION":87.9125,"RA_OF_ASC_NODE":46.5277,"ARG_OF_PERICENTER":88.9739,"MEAN_ANOMALY":271.1605,"EPHEMERIS_TYPE":0,"CLASSIFICATION_TYPE":"U","NORAD_CAT_ID":49079,"ELEMENT_SET_NO":999,"REV_AT_EPOCH":20728,"BSTAR":0.00016804,"MEAN_MOTION_DOT":7.8e-7,"MEAN_MOTION_DDOT":0}]
